[{"OBJECT_NAME":"DS-EO","OBJECT_ID":"2022-072A","EPOCH":"2026-03-09T23:09:32.454144","MEAN_MOTION":15.12980389,"ECCENTRICITY":0.00042856,"INCLINATION":9.9929,"RA_OF_ASC_NODE":205.6872,"ARG_OF_PERICENTER":305.4389,"MEAN_ANOMALY":54.5426,"EPHEMERIS_TYPE":0,"CLASSIFICATION_TYPE":"U","NORAD_CAT_ID":52935,"ELEMENT_SET_NO":999,"REV_AT_EPOCH":20345,"BSTAR":0.00030023735,"MEAN_MOTION_DOT":6.277e-5,"MEAN_MOTION_DDOT":0},{"OBJECT_NAME":"STRIX-3","OBJECT_ID":"2024-047A","EPOCH":"2026-03-09T22:36:43.864704","MEAN_MOTION":15.17646985,"ECCENTRICITY":0.00153398,"INCLINATION":97.656,"RA_OF_ASC_NODE":43.3231,"ARG_OF_PERICENTER":51.5909,"MEAN_ANOMALY":308.6699,"EPHEMERIS_TYPE":0,"CLASSIFICATION_TYPE":"U","NORAD_CAT_ID":59224,"ELEMENT_SET_NO":999,"REV_AT_EPOCH":10968,"BSTAR":0.00061996741,"MEAN_MOTION_DOT":0.00012457,"MEAN_MOTION_DDOT":0}]
